{
    "CCSDS_OMM_VERS": "3.0",
    "COMMENT": "GENERATED VIA SPACE-TRACK.ORG API",
    "CREATION_DATE": "2025-05-22T17:14:14",
    "ORIGINATOR": "18 SPCS",
    "OBJECT_NAME": "BEIDOU 7",
    "OBJECT_ID": "2010-068A",
    "CENTER_NAME": "EARTH",
    "REF_FRAME": "TEME",
    "TIME_SYSTEM": "UTC",
    "MEAN_ELEMENT_THEORY": "SGP4",
    "EPOCH": "2025-05-21T19:00:24.513696",
    "MEAN_MOTION": "1.00298142",
    "ECCENTRICITY": "0.00456880",
    "INCLINATION": "48.2584",
    "RA_OF_ASC_NODE": "276.6756",
    "ARG_OF_PERICENTER": "212.3292",
    "MEAN_ANOMALY": "140.5614",
    "EPHEMERIS_TYPE": "0",
    "CLASSIFICATION_TYPE": "U",
    "NORAD_CAT_ID": "37256",
    "ELEMENT_SET_NO": "999",
    "REV_AT_EPOCH": "5286",
    "BSTAR": "0.00000000000000",
    "MEAN_MOTION_DOT": "-0.00000218",
    "MEAN_MOTION_DDOT": "0.0000000000000",
    "SEMIMAJOR_AXIS": "42157.345",
    "PERIOD": "1435.720",
    "APOAPSIS": "35971.818",
    "PERIAPSIS": "35586.601",
    "OBJECT_TYPE": "PAYLOAD",
    "RCS_SIZE": "LARGE",
    "COUNTRY_CODE": "PRC",
    "LAUNCH_DATE": "2010-12-17",
    "SITE": "XSC",
    "DECAY_DATE": null,
    "FILE": "4736220",
    "GP_ID": "288141139",
    "TLE_LINE0": "0 BEIDOU 7",
    "TLE_LINE1": "1 37256U 10068A   25141.79195039 -.00000218  00000-0  00000-0 0  9996",
    "TLE_LINE2": "2 37256  48.2584 276.6756 0045688 212.3292 140.5614  1.00298142 52866"
}